[{"OBJECT_NAME":"SYRACUSE 4A","OBJECT_ID":"2021-095B","EPOCH":"2026-03-04T07:10:38.707968","MEAN_MOTION":1.0027073,"ECCENTRICITY":0.00014225,"INCLINATION":0.0154,"RA_OF_ASC_NODE":159.0951,"ARG_OF_PERICENTER":186.5145,"MEAN_ANOMALY":329.5914,"EPHEMERIS_TYPE":0,"CLASSIFICATION_TYPE":"U","NORAD_CAT_ID":49333,"ELEMENT_SET_NO":999,"REV_AT_EPOCH":1689,"BSTAR":0,"MEAN_MOTION_DOT":1.23e-6,"MEAN_MOTION_DDOT":0},{"OBJECT_NAME":"QZS-1R (MICHIBIKI-1R)","OBJECT_ID":"2021-096A","EPOCH":"2026-03-03T16:55:38.753760","MEAN_MOTION":1.00291339,"ECCENTRICITY":0.0747356,"INCLINATION":37.2425,"RA_OF_ASC_NODE":81.1405,"ARG_OF_PERICENTER":269.6972,"MEAN_ANOMALY":198.6025,"EPHEMERIS_TYPE":0,"CLASSIFICATION_TYPE":"U","NORAD_CAT_ID":49336,"ELEMENT_SET_NO":999,"REV_AT_EPOCH":1595,"BSTAR":0,"MEAN_MOTION_DOT":-2.6e-6,"MEAN_MOTION_DDOT":0},{"OBJECT_NAME":"ZHONGXING-1D","OBJECT_ID":"2021-114A","EPOCH":"2026-03-04T22:00:40.222944","MEAN_MOTION":1.0027238,"ECCENTRICITY":0.0002661,"INCLINATION":0.0383,"RA_OF_ASC_NODE":307.2191,"ARG_OF_PERICENTER":280.5534,"MEAN_ANOMALY":35.2104,"EPHEMERIS_TYPE":0,"CLASSIFICATION_TYPE":"U","NORAD_CAT_ID":49505,"ELEMENT_SET_NO":999,"REV_AT_EPOCH":1577,"BSTAR":0,"MEAN_MOTION_DOT":-3.46e-6,"MEAN_MOTION_DDOT":0},{"OBJECT_NAME":"STPSAT-6","OBJECT_ID":"2021-118A","EPOCH":"2026-03-04T10:38:38.463936","MEAN_MOTION":1.00269834,"ECCENTRICITY":0.0002707,"INCLINATION":0.0519,"RA_OF_ASC_NODE":88.9637,"ARG_OF_PERICENTER":233.3083,"MEAN_ANOMALY":247.7604,"EPHEMERIS_TYPE":0,"CLASSIFICATION_TYPE":"U","NORAD_CAT_ID":49817,"ELEMENT_SET_NO":999,"REV_AT_EPOCH":1552,"BSTAR":0,"MEAN_MOTION_DOT":-5.6e-7,"MEAN_MOTION_DDOT":0},{"OBJECT_NAME":"LDPE-1","OBJECT_ID":"2021-118B","EPOCH":"2026-03-04T07:03:38.619072","MEAN_MOTION":0.98921982,"ECCENTRICITY":0.00013537,"INCLINATION":4.4673,"RA_OF_ASC_NODE":77.8914,"ARG_OF_PERICENTER":88.1404,"MEAN_ANOMALY":301.022,"EPHEMERIS_TYPE":0,"CLASSIFICATION_TYPE":"U","NORAD_CAT_ID":49818,"ELEMENT_SET_NO":999,"REV_AT_EPOCH":1560,"BSTAR":0,"MEAN_MOTION_DOT":-6.6e-7,"MEAN_MOTION_DDOT":0},{"OBJECT_NAME":"EXPRESS AMU-7","OBJECT_ID":"2021-123A","EPOCH":"2026-03-04T18:42:43.450848","MEAN_MOTION":1.00273384,"ECCENTRICITY":4.03e-5,"INCLINATION":0.0191,"RA_OF_ASC_NODE":240.2762,"ARG_OF_PERICENTER":27.4208,"MEAN_ANOMALY":320.4936,"EPHEMERIS_TYPE":0,"CLASSIFICATION_TYPE":"U","NORAD_CAT_ID":50001,"ELEMENT_SET_NO":999,"REV_AT_EPOCH":1549,"BSTAR":0,"MEAN_MOTION_DOT":-2.53e-6,"MEAN_MOTION_DDOT":0},{"OBJECT_NAME":"EXPRESS AMU-3","OBJECT_ID":"2021-123B","EPOCH":"2026-03-04T06:19:57.306144","MEAN_MOTION":1.00296296,"ECCENTRICITY":0.0001131,"INCLINATION":0.0235,"RA_OF_ASC_NODE":235.8022,"ARG_OF_PERICENTER":74.9179,"MEAN_ANOMALY":49.2371,"EPHEMERIS_TYPE":0,"CLASSIFICATION_TYPE":"U","NORAD_CAT_ID":50002,"ELEMENT_SET_NO":999,"REV_AT_EPOCH":598,"BSTAR":0,"MEAN_MOTION_DOT":-3.36e-6,"MEAN_MOTION_DDOT":0},{"OBJECT_NAME":"TIANLIAN 2-02","OBJECT_ID":"2021-124A","EPOCH":"2026-03-04T14:36:38.883168","MEAN_MOTION":1.00271521,"ECCENTRICITY":0.0004728,"INCLINATION":0.5311,"RA_OF_ASC_NODE":88.2405,"ARG_OF_PERICENTER":207.668,"MEAN_ANOMALY":256.5503,"EPHEMERIS_TYPE":0,"CLASSIFICATION_TYPE":"U","NORAD_CAT_ID":50005,"ELEMENT_SET_NO":999,"REV_AT_EPOCH":1557,"BSTAR":0,"MEAN_MOTION_DOT":-2.5e-7,"MEAN_MOTION_DDOT":0},{"OBJECT_NAME":"TURKSAT 5B","OBJECT_ID":"2021-126A","EPOCH":"2026-03-04T05:49:38.654400","MEAN_MOTION":1.00271781,"ECCENTRICITY":0.00055587,"INCLINATION":0.0755,"RA_OF_ASC_NODE":328.4672,"ARG_OF_PERICENTER":0.9188,"MEAN_ANOMALY":321.9808,"EPHEMERIS_TYPE":0,"CLASSIFICATION_TYPE":"U","NORAD_CAT_ID":50212,"ELEMENT_SET_NO":999,"REV_AT_EPOCH":1524,"BSTAR":0,"MEAN_MOTION_DOT":1.34e-6,"MEAN_MOTION_DDOT":0},{"OBJECT_NAME":"INMARSAT 6-F1","OBJECT_ID":"2021-128A","EPOCH":"2026-03-04T18:04:38.818848","MEAN_MOTION":1.00271064,"ECCENTRICITY":1.01e-5,"INCLINATION":0.0024,"RA_OF_ASC_NODE":186.1594,"ARG_OF_PERICENTER":190.0609,"MEAN_ANOMALY":141.1823,"EPHEMERIS_TYPE":0,"CLASSIFICATION_TYPE":"U","NORAD_CAT_ID":50319,"ELEMENT_SET_NO":999,"REV_AT_EPOCH":1521,"BSTAR":0,"MEAN_MOTION_DOT":-1.82e-6,"MEAN_MOTION_DDOT":0},{"OBJECT_NAME":"SHIYAN-12 01 (SY-12 01)","OBJECT_ID":"2021-129A","EPOCH":"2026-03-04T20:03:35.460576","MEAN_MOTION":1.00095732,"ECCENTRICITY":0.0003744,"INCLINATION":3.4052,"RA_OF_ASC_NODE":81.3487,"ARG_OF_PERICENTER":248.5281,"MEAN_ANOMALY":272.0116,"EPHEMERIS_TYPE":0,"CLASSIFICATION_TYPE":"U","NORAD_CAT_ID":50321,"ELEMENT_SET_NO":999,"REV_AT_EPOCH":1545,"BSTAR":0,"MEAN_MOTION_DOT":-3.22e-6,"MEAN_MOTION_DDOT":0},{"OBJECT_NAME":"SHIYAN-12 02 (SY-12 02)","OBJECT_ID":"2021-129B","EPOCH":"2026-03-04T20:37:05.952288","MEAN_MOTION":1.00093872,"ECCENTRICITY":0.0003393,"INCLINATION":3.4057,"RA_OF_ASC_NODE":81.3658,"ARG_OF_PERICENTER":224.3273,"MEAN_ANOMALY":190.036,"EPHEMERIS_TYPE":0,"CLASSIFICATION_TYPE":"U","NORAD_CAT_ID":50322,"ELEMENT_SET_NO":999,"REV_AT_EPOCH":1545,"BSTAR":0,"MEAN_MOTION_DOT":1.1e-6,"MEAN_MOTION_DDOT":0},{"OBJECT_NAME":"TJS-9","OBJECT_ID":"2021-135A","EPOCH":"2026-03-04T18:36:35.492256","MEAN_MOTION":1.00274935,"ECCENTRICITY":0.0004281,"INCLINATION":0.0376,"RA_OF_ASC_NODE":110.5082,"ARG_OF_PERICENTER":41.6057,"MEAN_ANOMALY":66.7306,"EPHEMERIS_TYPE":0,"CLASSIFICATION_TYPE":"U","NORAD_CAT_ID":50574,"ELEMENT_SET_NO":999,"REV_AT_EPOCH":1538,"BSTAR":0,"MEAN_MOTION_DOT":-3.09e-6,"MEAN_MOTION_DDOT":0},{"OBJECT_NAME":"GOES 18","OBJECT_ID":"2022-021A","EPOCH":"2026-03-04T11:59:38.898528","MEAN_MOTION":1.00272095,"ECCENTRICITY":6.57e-5,"INCLINATION":0.0304,"RA_OF_ASC_NODE":75.7612,"ARG_OF_PERICENTER":323.5131,"MEAN_ANOMALY":165.8689,"EPHEMERIS_TYPE":0,"CLASSIFICATION_TYPE":"U","NORAD_CAT_ID":51850,"ELEMENT_SET_NO":999,"REV_AT_EPOCH":554,"BSTAR":0,"MEAN_MOTION_DOT":8.5e-7,"MEAN_MOTION_DDOT":0},{"OBJECT_NAME":"ZHONGXING-6D","OBJECT_ID":"2022-038A","EPOCH":"2026-03-04T04:51:38.892672","MEAN_MOTION":1.00272564,"ECCENTRICITY":0.0002186,"INCLINATION":0.0456,"RA_OF_ASC_NODE":248.9496,"ARG_OF_PERICENTER":58.2693,"MEAN_ANOMALY":52.7279,"EPHEMERIS_TYPE":0,"CLASSIFICATION_TYPE":"U","NORAD_CAT_ID":52255,"ELEMENT_SET_NO":999,"REV_AT_EPOCH":1437,"BSTAR":0,"MEAN_MOTION_DOT":-3.66e-6,"MEAN_MOTION_DDOT":0},{"OBJECT_NAME":"NILESAT 301","OBJECT_ID":"2022-061A","EPOCH":"2026-03-04T07:42:38.710368","MEAN_MOTION":1.00271279,"ECCENTRICITY":0.00056761,"INCLINATION":0.0235,"RA_OF_ASC_NODE":331.8745,"ARG_OF_PERICENTER":18.454,"MEAN_ANOMALY":280.442,"EPHEMERIS_TYPE":0,"CLASSIFICATION_TYPE":"U","NORAD_CAT_ID":52817,"ELEMENT_SET_NO":999,"REV_AT_EPOCH":1368,"BSTAR":0,"MEAN_MOTION_DOT":0,"MEAN_MOTION_DDOT":0},{"OBJECT_NAME":"CMS-02 (GSAT 24)","OBJECT_ID":"2022-067A","EPOCH":"2026-03-04T18:04:38.818848","MEAN_MOTION":1.00272156,"ECCENTRICITY":0.0002684,"INCLINATION":0.0477,"RA_OF_ASC_NODE":255.4289,"ARG_OF_PERICENTER":40.2803,"MEAN_ANOMALY":220.959,"EPHEMERIS_TYPE":0,"CLASSIFICATION_TYPE":"U","NORAD_CAT_ID":52903,"ELEMENT_SET_NO":999,"REV_AT_EPOCH":1356,"BSTAR":0,"MEAN_MOTION_DOT":-1.75e-6,"MEAN_MOTION_DDOT":0}]
