SYRACUSE 4A             
1 49333U 21095B   26063.29905912  .00000123  00000+0  00000+0 0  9997
2 49333   0.0154 159.0951 0001422 186.5145 329.5914  1.00270730 16890
QZS-1R (MICHIBIKI-1R)   
1 49336U 21096A   26062.70530965 -.00000260  00000+0  00000+0 0  9991
2 49336  37.2425  81.1405 0747356 269.6972 198.6025  1.00291339 15951
ZHONGXING-1D            
1 49505U 21114A   26063.91713221 -.00000346  00000+0  00000+0 0  9997
2 49505   0.0383 307.2191 0002661 280.5534  35.2104  1.00272380 15772
STPSAT-6                
1 49817U 21118A   26063.44350074 -.00000056  00000+0  00000+0 0  9996
2 49817   0.0519  88.9637 0002707 233.3083 247.7604  1.00269834 15521
LDPE-1                  
1 49818U 21118B   26063.29419698 -.00000066  00000+0  00000+0 0  9999
2 49818   4.4673  77.8914 0001353  88.1404 301.0220  0.98921982 15607
EXPRESS AMU-7           
1 50001U 21123A   26063.77966957 -.00000253  00000+0  00000+0 0  9997
2 50001   0.0191 240.2762 0000403  27.4208 320.4936  1.00273384 15496
EXPRESS AMU-3           
1 50002U 21123B   26063.26385771 -.00000336  00000+0  00000+0 0  9993
2 50002   0.0235 235.8022 0001131  74.9179  49.2371  1.00296296  5987
TIANLIAN 2-02           
1 50005U 21124A   26063.60878337 -.00000025  00000+0  00000+0 0  9995
2 50005   0.5311  88.2405 0004728 207.6680 256.5503  1.00271521 15572
TURKSAT 5B              
1 50212U 21126A   26063.24280850  .00000134  00000+0  00000+0 0  9994
2 50212   0.0755 328.4672 0005558   0.9188 321.9808  1.00271781 15240
INMARSAT 6-F1           
1 50319U 21128A   26063.75322707 -.00000182  00000+0  00000+0 0  9992
2 50319   0.0024 186.1594 0000101 190.0609 141.1823  1.00271064 15217
SHIYAN-12 01 (SY-12 01) 
1 50321U 21129A   26063.83582709 -.00000322  00000+0  00000+0 0  9991
2 50321   3.4052  81.3487 0003744 248.5281 272.0116  1.00095732 15457
SHIYAN-12 02 (SY-12 02) 
1 50322U 21129B   26063.85909667  .00000110  00000+0  00000+0 0  9994
2 50322   3.4057  81.3658 0003393 224.3273 190.0360  1.00093872 15459
TJS-9                   
1 50574U 21135A   26063.77541079 -.00000309  00000+0  00000+0 0  9991
2 50574   0.0376 110.5082 0004281  41.6057  66.7306  1.00274935 15380
GOES 18                 
1 51850U 22021A   26063.49975577  .00000085  00000+0  00000+0 0  9997
2 51850   0.0304  75.7612 0000657 323.5131 165.8689  1.00272095  5545
ZHONGXING-6D            
1 52255U 22038A   26063.20253348 -.00000366  00000+0  00000+0 0  9992
2 52255   0.0456 248.9496 0002186  58.2693  52.7279  1.00272564 14372
NILESAT 301             
1 52817U 22061A   26063.32128137  .00000000  00000+0  00000+0 0  9996
2 52817   0.0235 331.8745 0005676  18.4540 280.4420  1.00271279 13689
CMS-02 (GSAT 24)        
1 52903U 22067A   26063.75322707 -.00000175  00000+0  00000+0 0  9998
2 52903   0.0477 255.4289 0002684  40.2803 220.9590  1.00272156 13567
